{
    "links": {
        "self": "http://www.neowsapp.com/rest/v1/neo/3375233?api_key=iIulBulltgU6a56xZRHN4H3l9WmuAYTsLGpBGhQ2"
    },
    "id": "3375233",
    "neo_reference_id": "3375233",
    "name": "(2007 HH44)",
    "designation": "2007 HH44",
    "nasa_jpl_url": "http://ssd.jpl.nasa.gov/sbdb.cgi?sstr=3375233",
    "absolute_magnitude_h": 25.0,
    "estimated_diameter": {
        "kilometers": {
            "estimated_diameter_min": 0.02658,
            "estimated_diameter_max": 0.0594346868
        },
        "meters": {
            "estimated_diameter_min": 26.58,
            "estimated_diameter_max": 59.4346868419
        },
        "miles": {
            "estimated_diameter_min": 0.0165160412,
            "estimated_diameter_max": 0.0369309908
        },
        "feet": {
            "estimated_diameter_min": 87.2047272,
            "estimated_diameter_max": 194.9956979785
        }
    },
    "is_potentially_hazardous_asteroid": false,
    "close_approach_data": [
        {
            "close_approach_date": "2007-05-09",
            "close_approach_date_full": "2007-May-09 15:28",
            "epoch_date_close_approach": 1178724480000,
            "relative_velocity": {
                "kilometers_per_second": "8.1258105526",
                "kilometers_per_hour": "29252.9179894306",
                "miles_per_hour": "18176.6256251548"
            },
            "miss_distance": {
                "astronomical": "0.0576973288",
                "lunar": "22.4442609032",
                "kilometers": "8631397.493169656",
                "miles": "5363301.7026510128"
            },
            "orbiting_body": "Earth"
        }
    ],
    "orbital_data": {
        "orbit_id": "10",
        "orbit_determination_date": "2017-04-06 09:06:29",
        "first_observation_date": "2007-04-24",
        "last_observation_date": "2007-05-09",
        "data_arc_in_days": 15,
        "observations_used": 28,
        "orbit_uncertainty": "8",
        "minimum_orbit_intersection": ".0403329",
        "jupiter_tisserand_invariant": "3.268",
        "epoch_osculation": "2454217.5",
        "eccentricity": ".5705828771434994",
        "semi_major_axis": "2.422525248420578",
        "inclination": "1.741890927857302",
        "ascending_node_longitude": "173.4872834238146",
        "orbital_period": "1377.212307218131",
        "perihelion_distance": "1.040273822223994",
        "perihelion_argument": "71.2159012642514",
        "aphelion_distance": "3.804776674617163",
        "perihelion_time": "2454242.779599619754",
        "mean_anomaly": "353.3919731798694",
        "mean_motion": ".26139760595603",
        "equinox": "J2000",
        "orbit_class": {
            "orbit_class_type": "AMO",
            "orbit_class_description": "Near-Earth asteroid orbits similar to that of 1221 Amor",
            "orbit_class_range": "1.017 AU < q (perihelion) < 1.3 AU"
        }
    },
    "is_sentry_object": false
}